{
  "type": "FeatureCollection",
  "features": [
    {
      "type": "Feature",
      "properties": {
        "norad_id": 65729,
        "name": "DRAGONFLY",
        "group": "stations",
        "lat": 47.40261084540234,
        "lon": -116.01454057072705,
        "alt_km": 361.2889635740703,
        "timestamp": "2025-12-03T04:52:28.438470+00:00",
        "meta_object_name": "DRAGONFLY",
        "meta_object_id": "1998-067XH",
        "meta_epoch": "2025-12-02T19:24:02.227104",
        "meta_mean_motion": 15.68060646,
        "meta_eccentricity": 0.0006468,
        "meta_inclination": 51.6253,
        "meta_ra_of_asc_node": 186.4705,
        "meta_arg_of_pericenter": 216.4679,
        "meta_mean_anomaly": 143.5877,
        "meta_ephemeris_type": 0,
        "meta_classification_type": "U",
        "meta_norad_cat_id": 65729,
        "meta_element_set_no": 999,
        "meta_rev_at_epoch": 1160,
        "meta_bstar": 0.0012965,
        "meta_mean_motion_dot": 0.00149213,
        "meta_mean_motion_ddot": 0,
        "tle_line1": "1 65729U 98067XH  25336.80835911  .00149213  00000+0  12965-2 0  9997",
        "tle_line2": "2 65729  51.6253 186.4705 0006468 216.4679 143.5877 15.68060646 11608"
      },
      "geometry": {
        "type": "Point",
        "coordinates": [
          -116.01454057072705,
          47.40261084540234
        ]
      }
    },
    {
      "type": "Feature",
      "properties": {
        "norad_id": 65730,
        "name": "1998-067XJ",
        "group": "stations",
        "lat": 44.44017346505796,
        "lon": -130.5920113913409,
        "alt_km": 194.65119977423183,
        "timestamp": "2025-12-03T04:52:28.438481+00:00",
        "meta_object_name": "1998-067XJ",
        "meta_object_id": "1998-067XJ",
        "meta_epoch": "2025-12-02T19:46:01.269120",
        "meta_mean_motion": 16.23931094,
        "meta_eccentricity": 0.0010115,
        "meta_inclination": 51.6061,
        "meta_ra_of_asc_node": 180.4655,
        "meta_arg_of_pericenter": 256.3912,
        "meta_mean_anomaly": 103.5981,
        "meta_ephemeris_type": 0,
        "meta_classification_type": "U",
        "meta_norad_cat_id": 65730,
        "meta_element_set_no": 999,
        "meta_rev_at_epoch": 1168,
        "meta_bstar": 0.0022859,
        "meta_mean_motion_dot": 0.06330363,
        "meta_mean_motion_ddot": 1.1931e-05,
        "tle_line1": "1 65730U 98067XJ  25336.82362580  .06330363  11931-4  22859-2 0  9995",
        "tle_line2": "2 65730  51.6061 180.4655 0010115 256.3912 103.5981 16.23931094 11688"
      },
      "geometry": {
        "type": "Point",
        "coordinates": [
          -130.5920113913409,
          44.44017346505796
        ]
      }
    },
    {
      "type": "Feature",
      "properties": {
        "norad_id": 65731,
        "name": "1998-067XK",
        "group": "stations",
        "lat": -50.441272228066325,
        "lon": 111.95599067412073,
        "alt_km": 382.30712891267376,
        "timestamp": "2025-12-03T04:52:28.438492+00:00",
        "meta_object_name": "1998-067XK",
        "meta_object_id": "1998-067XK",
        "meta_epoch": "2025-12-02T20:00:36.101088",
        "meta_mean_motion": 15.63382318,
        "meta_eccentricity": 0.0005863,
        "meta_inclination": 51.6285,
        "meta_ra_of_asc_node": 187.4006,
        "meta_arg_of_pericenter": 188.3266,
        "meta_mean_anomaly": 171.7632,
        "meta_ephemeris_type": 0,
        "meta_classification_type": "U",
        "meta_norad_cat_id": 65731,
        "meta_element_set_no": 999,
        "meta_rev_at_epoch": 1159,
        "meta_bstar": 0.00098553,
        "meta_mean_motion_dot": 0.00093205,
        "meta_mean_motion_ddot": 0,
        "tle_line1": "1 65731U 98067XK  25336.83375117  .00093205  00000+0  98553-3 0  9997",
        "tle_line2": "2 65731  51.6285 187.4006 0005863 188.3266 171.7632 15.63382318 11596"
      },
      "geometry": {
        "type": "Point",
        "coordinates": [
          111.95599067412073,
          -50.441272228066325
        ]
      }
    },
    {
      "type": "Feature",
      "properties": {
        "norad_id": 65732,
        "name": "RSP-03",
        "group": "stations",
        "lat": 11.360222858229294,
        "lon": -4.146418237257501,
        "alt_km": 366.35035726690603,
        "timestamp": "2025-12-03T04:52:28.438502+00:00",
        "meta_object_name": "RSP-03",
        "meta_object_id": "1998-067XL",
        "meta_epoch": "2025-12-02T20:30:42.166944",
        "meta_mean_motion": 15.65600923,
        "meta_eccentricity": 0.0006827,
        "meta_inclination": 51.6273,
        "meta_ra_of_asc_node": 186.7826,
        "meta_arg_of_pericenter": 191.7215,
        "meta_mean_anomaly": 168.3622,
        "meta_ephemeris_type": 0,
        "meta_classification_type": "U",
        "meta_norad_cat_id": 65732,
        "meta_element_set_no": 999,
        "meta_rev_at_epoch": 1161,
        "meta_bstar": 0.0011616,
        "meta_mean_motion_dot": 0.0012054,
        "meta_mean_motion_ddot": 0,
        "tle_line1": "1 65732U 98067XL  25336.85465471  .00120540  00000+0  11616-2 0  9990",
        "tle_line2": "2 65732  51.6273 186.7826 0006827 191.7215 168.3622 15.65600923 11610"
      },
      "geometry": {
        "type": "Point",
        "coordinates": [
          -4.146418237257501,
          11.360222858229294
        ]
      }
    },
    {
      "type": "Feature",
      "properties": {
        "norad_id": 65733,
        "name": "GHS-01",
        "group": "stations",
        "lat": -50.58576157916494,
        "lon": 78.68233664817386,
        "alt_km": 359.5210773045337,
        "timestamp": "2025-12-03T04:52:28.438513+00:00",
        "meta_object_name": "GHS-01",
        "meta_object_id": "1998-067XM",
        "meta_epoch": "2025-12-02T20:07:58.918368",
        "meta_mean_motion": 15.70056093,
        "meta_eccentricity": 0.0006994,
        "meta_inclination": 51.628,
        "meta_ra_of_asc_node": 185.9293,
        "meta_arg_of_pericenter": 215.3541,
        "meta_mean_anomaly": 144.6993,
        "meta_ephemeris_type": 0,
        "meta_classification_type": "U",
        "meta_norad_cat_id": 65733,
        "meta_element_set_no": 999,
        "meta_rev_at_epoch": 1162,
        "meta_bstar": 0.0014391,
        "meta_mean_motion_dot": 0.00180652,
        "meta_mean_motion_ddot": 0,
        "tle_line1": "1 65733U 98067XM  25336.83887637  .00180652  00000+0  14391-2 0  9994",
        "tle_line2": "2 65733  51.6280 185.9293 0006994 215.3541 144.6993 15.70056093 11626"
      },
      "geometry": {
        "type": "Point",
        "coordinates": [
          78.68233664817386,
          -50.58576157916494
        ]
      }
    },
    {
      "type": "Feature",
      "properties": {
        "norad_id": 65941,
        "name": "YOTSUBA-KULOVER",
        "group": "stations",
        "lat": -45.84697262193369,
        "lon": 62.5494806868506,
        "alt_km": 398.23914612083354,
        "timestamp": "2025-12-03T04:52:28.438523+00:00",
        "meta_object_name": "YOTSUBA-KULOVER",
        "meta_object_id": "1998-067XN",
        "meta_epoch": "2025-12-02T15:30:17.265024",
        "meta_mean_motion": 15.57709356,
        "meta_eccentricity": 0.00021398,
        "meta_inclination": 51.6284,
        "meta_ra_of_asc_node": 190.644,
        "meta_arg_of_pericenter": 164.2097,
        "meta_mean_anomaly": 195.8962,
        "meta_ephemeris_type": 0,
        "meta_classification_type": "U",
        "meta_norad_cat_id": 65941,
        "meta_element_set_no": 999,
        "meta_rev_at_epoch": 828,
        "meta_bstar": 0.00091621888,
        "meta_mean_motion_dot": 0.00069349,
        "meta_mean_motion_ddot": 0,
        "tle_line1": "1 65941U 98067XN  25336.64603316  .00069349  00000+0  91622-3 0  9996",
        "tle_line2": "2 65941  51.6284 190.6440 0002139 164.2097 195.8962 15.57709356  8287"
      },
      "geometry": {
        "type": "Point",
        "coordinates": [
          62.5494806868506,
          -45.84697262193369
        ]
      }
    },
    {
      "type": "Feature",
      "properties": {
        "norad_id": 65942,
        "name": "BOTAN",
        "group": "stations",
        "lat": 46.652069441320144,
        "lon": -49.69881737540013,
        "alt_km": 378.64889822704663,
        "timestamp": "2025-12-03T04:52:28.438534+00:00",
        "meta_object_name": "BOTAN",
        "meta_object_id": "1998-067XP",
        "meta_epoch": "2025-12-01T23:11:25.783296",
        "meta_mean_motion": 15.60127991,
        "meta_eccentricity": 0.00045427,
        "meta_inclination": 51.629,
        "meta_ra_of_asc_node": 193.6047,
        "meta_arg_of_pericenter": 166.4057,
        "meta_mean_anomaly": 193.706,
        "meta_ephemeris_type": 0,
        "meta_classification_type": "U",
        "meta_norad_cat_id": 65942,
        "meta_element_set_no": 999,
        "meta_rev_at_epoch": 818,
        "meta_bstar": 0.0011466978,
        "meta_mean_motion_dot": 0.00095633,
        "meta_mean_motion_ddot": 0,
        "tle_line1": "1 65942U 98067XP  25335.96627064  .00095633  00000+0  11467-2 0  9990",
        "tle_line2": "2 65942  51.6290 193.6047 0004542 166.4057 193.7060 15.60127991  8189"
      },
      "geometry": {
        "type": "Point",
        "coordinates": [
          -49.69881737540013,
          46.652069441320144
        ]
      }
    }
  ]
}